{
    "links": {
        "self": "http://www.neowsapp.com/rest/v1/neo/3989410?api_key=iIulBulltgU6a56xZRHN4H3l9WmuAYTsLGpBGhQ2"
    },
    "id": "3989410",
    "neo_reference_id": "3989410",
    "name": "(2020 BT15)",
    "designation": "2020 BT15",
    "nasa_jpl_url": "http://ssd.jpl.nasa.gov/sbdb.cgi?sstr=3989410",
    "absolute_magnitude_h": 22.459,
    "estimated_diameter": {
        "kilometers": {
            "estimated_diameter_min": 0.0856554452,
            "estimated_diameter_max": 0.1915313981
        },
        "meters": {
            "estimated_diameter_min": 85.6554451812,
            "estimated_diameter_max": 191.5313980682
        },
        "miles": {
            "estimated_diameter_min": 0.0532238096,
            "estimated_diameter_max": 0.1190120563
        },
        "feet": {
            "estimated_diameter_min": 281.0218107684,
            "estimated_diameter_max": 628.3838720381
        }
    },
    "is_potentially_hazardous_asteroid": false,
    "close_approach_data": [
        {
            "close_approach_date": "2019-10-31",
            "close_approach_date_full": "2019-Oct-31 19:22",
            "epoch_date_close_approach": 1572549720000,
            "relative_velocity": {
                "kilometers_per_second": "11.9791647845",
                "kilometers_per_hour": "43124.993224078",
                "miles_per_hour": "26796.1937063722"
            },
            "miss_distance": {
                "astronomical": "0.4437544261",
                "lunar": "172.6204717529",
                "kilometers": "66384716.947632407",
                "miles": "41249550.3441929366"
            },
            "orbiting_body": "Earth"
        },
        {
            "close_approach_date": "2020-01-20",
            "close_approach_date_full": "2020-Jan-20 00:59",
            "epoch_date_close_approach": 1579481940000,
            "relative_velocity": {
                "kilometers_per_second": "8.4139326086",
                "kilometers_per_hour": "30290.1573910279",
                "miles_per_hour": "18821.1258522196"
            },
            "miss_distance": {
                "astronomical": "0.4168159249",
                "lunar": "162.1413947861",
                "kilometers": "62354774.547119963",
                "miles": "38745460.2527149694"
            },
            "orbiting_body": "Earth"
        }
    ],
    "orbital_data": {
        "orbit_id": "3",
        "orbit_determination_date": "2020-02-24 14:22:25",
        "first_observation_date": "2020-01-27",
        "last_observation_date": "2020-02-21",
        "data_arc_in_days": 25,
        "observations_used": 12,
        "orbit_uncertainty": "7",
        "minimum_orbit_intersection": ".375245",
        "jupiter_tisserand_invariant": "3.503",
        "epoch_osculation": "2459000.5",
        "eccentricity": ".463042268512614",
        "semi_major_axis": "2.141642692628953",
        "inclination": "19.25176186989889",
        "ascending_node_longitude": "344.1797244042293",
        "orbital_period": "1144.771873433034",
        "perihelion_distance": "1.14997160189058",
        "perihelion_argument": "89.70576418671941",
        "aphelion_distance": "3.133313783367327",
        "perihelion_time": "2458811.978217394719",
        "mean_anomaly": "59.2850360084178",
        "mean_motion": ".3144731350888306",
        "equinox": "J2000",
        "orbit_class": {
            "orbit_class_type": "AMO",
            "orbit_class_description": "Near-Earth asteroid orbits similar to that of 1221 Amor",
            "orbit_class_range": "1.017 AU < q (perihelion) < 1.3 AU"
        }
    },
    "is_sentry_object": false
}